{
    "links": {
        "self": "http://www.neowsapp.com/rest/v1/neo/3451796?api_key=iIulBulltgU6a56xZRHN4H3l9WmuAYTsLGpBGhQ2"
    },
    "id": "3451796",
    "neo_reference_id": "3451796",
    "name": "(2009 FP)",
    "designation": "2009 FP",
    "nasa_jpl_url": "http://ssd.jpl.nasa.gov/sbdb.cgi?sstr=3451796",
    "absolute_magnitude_h": 23.0,
    "estimated_diameter": {
        "kilometers": {
            "estimated_diameter_min": 0.0667659413,
            "estimated_diameter_max": 0.1492931834
        },
        "meters": {
            "estimated_diameter_min": 66.7659413495,
            "estimated_diameter_max": 149.2931834393
        },
        "miles": {
            "estimated_diameter_min": 0.0414864197,
            "estimated_diameter_max": 0.0927664547
        },
        "feet": {
            "estimated_diameter_min": 219.0483710172,
            "estimated_diameter_max": 489.807047955
        }
    },
    "is_potentially_hazardous_asteroid": false,
    "close_approach_data": [
        {
            "close_approach_date": "2009-03-02",
            "close_approach_date_full": "2009-Mar-02 17:14",
            "epoch_date_close_approach": 1236014040000,
            "relative_velocity": {
                "kilometers_per_second": "12.5140868985",
                "kilometers_per_hour": "45050.7128346763",
                "miles_per_hour": "27992.7609833021"
            },
            "miss_distance": {
                "astronomical": "0.0360069686",
                "lunar": "14.0067107854",
                "kilometers": "5386565.807716882",
                "miles": "3347056.7878296916"
            },
            "orbiting_body": "Earth"
        }
    ],
    "orbital_data": {
        "orbit_id": "13",
        "orbit_determination_date": "2017-04-06 09:01:00",
        "first_observation_date": "2009-03-17",
        "last_observation_date": "2009-04-02",
        "data_arc_in_days": 16,
        "observations_used": 36,
        "orbit_uncertainty": "8",
        "minimum_orbit_intersection": ".0102968",
        "jupiter_tisserand_invariant": "3.763",
        "epoch_osculation": "2454912.5",
        "eccentricity": ".5365249559240043",
        "semi_major_axis": "1.89156268551929",
        "inclination": "6.13507688746396",
        "ascending_node_longitude": "343.3903801184674",
        "orbital_period": "950.231742967948",
        "perihelion_distance": ".8766920990435617",
        "perihelion_argument": "126.2618105723749",
        "aphelion_distance": "2.906433271995018",
        "perihelion_time": "2454855.879710367565",
        "mean_anomaly": "21.45087702923027",
        "mean_motion": ".3788549505571959",
        "equinox": "J2000",
        "orbit_class": {
            "orbit_class_type": "APO",
            "orbit_class_description": "Near-Earth asteroid orbits which cross the Earth’s orbit similar to that of 1862 Apollo",
            "orbit_class_range": "a (semi-major axis) > 1.0 AU; q (perihelion) < 1.017 AU"
        }
    },
    "is_sentry_object": false
}